{"type":"FeatureCollection","metadata":{"generated":1789181089000,"url":"https://earthquake.usgs.gov/earthquakes/feed/v1.0/summary/all_hour.geojson","title":"USGS All Earthquakes, Past Hour","status":200,"api":"2.7.0","count":11},"features":[{"type":"Feature","properties":{"mag":1.9,"place":"32 km SE of Glacier View, Alaska","time":1789180969827,"updated":1789181076991,"tz":null,"url":"https://earthquake.usgs.gov/earthquakes/eventpage/aka2026sbiznu","detail":"https://earthquake.usgs.gov/earthquakes/feed/v1.0/detail/aka2026sbiznu.geojson","felt":null,"cdi":null,"mmi":null,"alert":null,"status":"automatic","tsunami":0,"sig":56,"net":"ak","code":"a2026sbiznu","ids":",aka2026sbiznu,","sources":",ak,","types":",origin,phase-data,","nst":55,"dmin":0.3,"rms":0.9,"gap":38,"magType":"ml","type":"earthquake","title":"M 1.9 - 32 km SE of Glacier View, Alaska"},"geometry":{"type":"Point","coordinates":[-147.151,61.634,12.4]},"id":"aka2026sbiznu"},
{"type":"Feature","properties":{"mag":2.49,"place":"24 km SW of Petrolia, CA","time":1789180956870,"updated":1789181049280,"tz":null,"url":"https://earthquake.usgs.gov/earthquakes/eventpage/nc75434022","detail":"https://earthquake.usgs.gov/earthquakes/feed/v1.0/detail/nc75434022.geojson","felt":null,"cdi":null,"mmi":null,"alert":null,"status":"automatic","tsunami":0,"sig":95,"net":"nc","code":"75434022","ids":",nc75434022,","sources":",nc,","types":",nearby-cities,origin,phase-data,","nst":10,"dmin":0.1544,"rms":0.43,"gap":289,"magType":"md","type":"earthquake","title":"M 2.5 - 24 km SW of Petrolia, CA"},"geometry":{"type":"Point","coordinates":[-124.49666595459,40.1886672973633,0.189999997615814]},"id":"nc75434022"},
{"type":"Feature","properties":{"mag":0.91,"place":"6 km NE of Coso Junction, CA","time":1789180269220,"updated":1789180481602,"tz":null,"url":"https://earthquake.usgs.gov/earthquakes/eventpage/ci41545080","detail":"https://earthquake.usgs.gov/earthquakes/feed/v1.0/detail/ci41545080.geojson","felt":null,"cdi":null,"mmi":null,"alert":null,"status":"automatic","tsunami":0,"sig":13,"net":"ci","code":"41545080","ids":",ci41545080,","sources":",ci,","types":",nearby-cities,origin,phase-data,","nst":21,"dmin":0.05256,"rms":0.12,"gap":43,"magType":"ml","type":"earthquake","title":"M 0.9 - 6 km NE of Coso Junction, CA"},"geometry":{"type":"Point","coordinates":[-117.902333333333,36.0816666666667,5.49]},"id":"ci41545080"},
{"type":"Feature","properties":{"mag":0.9,"place":"73 km WNW of Karluk, Alaska","time":1789179397272,"updated":1789179467863,"tz":null,"url":"https://earthquake.usgs.gov/earthquakes/eventpage/aka2026sbicvc","detail":"https://earthquake.usgs.gov/earthquakes/feed/v1.0/detail/aka2026sbicvc.geojson","felt":null,"cdi":null,"mmi":null,"alert":null,"status":"automatic","tsunami":0,"sig":12,"net":"ak","code":"a2026sbicvc","ids":",aka2026sbicvc,","sources":",ak,","types":",origin,phase-data,","nst":7,"dmin":0.3,"rms":0.1,"gap":207,"magType":"ml","type":"earthquake","title":"M 0.9 - 73 km WNW of Karluk, Alaska"},"geometry":{"type":"Point","coordinates":[-155.635,57.768,99.1]},"id":"aka2026sbicvc"},
{"type":"Feature","properties":{"mag":1.44,"place":"6 km WNW of Cobb, CA","time":1789179366100,"updated":1789180642801,"tz":null,"url":"https://earthquake.usgs.gov/earthquakes/eventpage/nc75434017","detail":"https://earthquake.usgs.gov/earthquakes/feed/v1.0/detail/nc75434017.geojson","felt":null,"cdi":null,"mmi":null,"alert":null,"status":"automatic","tsunami":0,"sig":32,"net":"nc","code":"75434017","ids":",nc75434017,","sources":",nc,","types":",nearby-cities,origin,phase-data,scitech-link,","nst":28,"dmin":0.001669,"rms":0.03,"gap":45,"magType":"md","type":"earthquake","title":"M 1.4 - 6 km WNW of Cobb, CA"},"geometry":{"type":"Point","coordinates":[-122.791496276855,38.8370018005371,2.35999989509583]},"id":"nc75434017"},
{"type":"Feature","properties":{"mag":1.32,"place":"4 km ESE of Inglewood, CA","time":1789179041850,"updated":1789179245607,"tz":null,"url":"https://earthquake.usgs.gov/earthquakes/eventpage/ci41545064","detail":"https://earthquake.usgs.gov/earthquakes/feed/v1.0/detail/ci41545064.geojson","felt":null,"cdi":null,"mmi":null,"alert":null,"status":"automatic","tsunami":0,"sig":27,"net":"ci","code":"41545064","ids":",ci41545064,","sources":",ci,","types":",nearby-cities,origin,phase-data,","nst":27,"dmin":0.0254,"rms":0.22,"gap":93,"magType":"ml","type":"earthquake","title":"M 1.3 - 4 km ESE of Inglewood, CA"},"geometry":{"type":"Point","coordinates":[-118.305166666667,33.9441666666667,16.7]},"id":"ci41545064"},
{"type":"Feature","properties":{"mag":1.7,"place":"33 km NW of Toyah, Texas","time":1789178605332,"updated":1789178873498,"tz":null,"url":"https://earthquake.usgs.gov/earthquakes/eventpage/tx2026ryknxz","detail":"https://earthquake.usgs.gov/earthquakes/feed/v1.0/detail/tx2026ryknxz.geojson","felt":null,"cdi":null,"mmi":null,"alert":null,"status":"automatic","tsunami":0,"sig":44,"net":"tx","code":"2026ryknxz","ids":",tx2026ryknxz,","sources":",tx,","types":",origin,phase-data,","nst":8,"dmin":0.1,"rms":0.6,"gap":147,"magType":"ml","type":"earthquake","title":"M 1.7 - 33 km NW of Toyah, Texas"},"geometry":{"type":"Point","coordinates":[-104.017,31.551,0.4034]},"id":"tx2026ryknxz"},
{"type":"Feature","properties":{"mag":2.36,"place":"5 km S of Meno, Oklahoma","time":1789178467334,"updated":1789178709343,"tz":null,"url":"https://earthquake.usgs.gov/earthquakes/eventpage/ok2026rwfu","detail":"https://earthquake.usgs.gov/earthquakes/feed/v1.0/detail/ok2026rwfu.geojson","felt":null,"cdi":null,"mmi":null,"alert":null,"status":"automatic","tsunami":0,"sig":86,"net":"ok","code":"2026rwfu","ids":",ok2026rwfu,","sources":",ok,","types":",origin,phase-data,","nst":62,"dmin":0.2902131379,"rms":0.7461842276,"gap":78.21899223,"magType":"ml","type":"earthquake","title":"M 2.4 - 5 km S of Meno, Oklahoma"},"geometry":{"type":"Point","coordinates":[-98.17154694,36.33774567,0.4843016267]},"id":"ok2026rwfu"},
{"type":"Feature","properties":{"mag":4.7,"place":"2 km NE of Manaca Norte, Panama","time":1789178390373,"updated":1789180946974,"tz":null,"url":"https://earthquake.usgs.gov/earthquakes/eventpage/us7000tgw1","detail":"https://earthquake.usgs.gov/earthquakes/feed/v1.0/detail/us7000tgw1.geojson","felt":21,"cdi":4.8,"mmi":null,"alert":null,"status":"reviewed","tsunami":0,"sig":350,"net":"us","code":"7000tgw1","ids":",us7000tgw1,","sources":",us,","types":",dyfi,origin,phase-data,","nst":47,"dmin":1.008,"rms":1.06,"gap":138,"magType":"mb","type":"earthquake","title":"M 4.7 - 2 km NE of Manaca Norte, Panama"},"geometry":{"type":"Point","coordinates":[-82.7898,8.3545,10]},"id":"us7000tgw1"},
{"type":"Feature","properties":{"mag":1.9,"place":"31 km SSE of Eureka Roadhouse, Alaska","time":1789178009047,"updated":1789178197754,"tz":null,"url":"https://earthquake.usgs.gov/earthquakes/eventpage/aka2026sbhitq","detail":"https://earthquake.usgs.gov/earthquakes/feed/v1.0/detail/aka2026sbhitq.geojson","felt":null,"cdi":null,"mmi":null,"alert":null,"status":"automatic","tsunami":0,"sig":56,"net":"ak","code":"a2026sbhitq","ids":",aka2026sbhitq,","sources":",ak,","types":",origin,phase-data,","nst":37,"dmin":0.4,"rms":1,"gap":47,"magType":"ml","type":"earthquake","title":"M 1.9 - 31 km SSE of Eureka Roadhouse, Alaska"},"geometry":{"type":"Point","coordinates":[-146.978,61.675,10.3]},"id":"aka2026sbhitq"},
{"type":"Feature","properties":{"mag":3.2,"place":"23 km NW of Stanley, Idaho","time":1789177967575,"updated":1789180299040,"tz":null,"url":"https://earthquake.usgs.gov/earthquakes/eventpage/us7000tgvy","detail":"https://earthquake.usgs.gov/earthquakes/feed/v1.0/detail/us7000tgvy.geojson","felt":null,"cdi":null,"mmi":null,"alert":null,"status":"reviewed","tsunami":0,"sig":158,"net":"us","code":"7000tgvy","ids":",us7000tgvy,","sources":",us,","types":",origin,phase-data,","nst":46,"dmin":0.338,"rms":1.2,"gap":37,"magType":"ml","type":"earthquake","title":"M 3.2 - 23 km NW of Stanley, Idaho"},"geometry":{"type":"Point","coordinates":[-115.1751,44.348,10]},"id":"us7000tgvy"}],"bbox":[-155.635,8.3545,0.18999999761581,-82.7898,61.675,99.1]}